{"type": "FeatureCollection", "features": [ {"type": "Feature", "properties": {"norad_id": 41335, "name": "SENTINEL-3A", "group": "resource", "lat": -58.9443240584916, "lon": 64.0489695855783, "alt_km": 810.3306220473614, "timestamp": "2025-12-10T09:57:44.361678+00:00", "meta": {"OBJECT_NAME": "SENTINEL-3A", "OBJECT_ID": "2016-011A", "EPOCH": "2025-12-10T03:30:39.341952", "MEAN_MOTION": 14.26745004, "ECCENTRICITY": 9.53e-05, "INCLINATION": 98.621, "RA_OF_ASC_NODE": 49.1925, "ARG_OF_PERICENTER": 93.502, "MEAN_ANOMALY": 266.627, "EPHEMERIS_TYPE": 0, "CLASSIFICATION_TYPE": "U", "NORAD_CAT_ID": 41335, "ELEMENT_SET_NO": 999, "REV_AT_EPOCH": 51110, "BSTAR": 0.00010858, "MEAN_MOTION_DOT": 2.19e-06, "MEAN_MOTION_DDOT": 0}, "tle": {"line1": "1 41335U 16011A   25344.14628868  .00000219  00000+0  10858-3 0  9992", "line2": "2 41335  98.6210  49.1925 0000953  93.5020 266.6270 14.26745004511100"}}, "geometry": {"type": "Point", "coordinates": [64.0489695855783, -58.9443240584916]}}, {"type": "Feature", "properties": {"norad_id": 41556, "name": "ZIYUAN 3-2 (ZY 3-2)", "group": "resource", "lat": -19.64490415538465, "lon": 61.280642678840685, "alt_km": 505.528550028067, "timestamp": "2025-12-10T09:57:44.361689+00:00", "meta": {"OBJECT_NAME": "ZIYUAN 3-2 (ZY 3-2)", "OBJECT_ID": "2016-033A", "EPOCH": "2025-12-10T05:18:49.899168", "MEAN_MOTION": 15.21443138, "ECCENTRICITY": 0.0012427, "INCLINATION": 97.4041, "RA_OF_ASC_NODE": 58.4295, "ARG_OF_PERICENTER": 258.9232, "MEAN_ANOMALY": 101.0607, "EPHEMERIS_TYPE": 0, "CLASSIFICATION_TYPE": "U", "NORAD_CAT_ID": 41556, "ELEMENT_SET_NO": 999, "REV_AT_EPOCH": 52925, "BSTAR": 0.00049278, "MEAN_MOTION_DOT": 0.0001103, "MEAN_MOTION_DDOT": 0}, "tle": {"line1": "1 41556U 16033A   25344.22141087  .00011030  00000+0  49278-3 0  9994", "line2": "2 41556  97.4041  58.4295 0012427 258.9232 101.0607 15.21443138529258"}}, "geometry": {"type": "Point", "coordinates": [61.280642678840685, -19.64490415538465]}}, {"type": "Feature", "properties": {"norad_id": 41599, "name": "CARTOSAT-2C", "group": "resource", "lat": -56.96239841934691, "lon": 53.3389033720393, "alt_km": 519.9693952565267, "timestamp": "2025-12-10T09:57:44.361699+00:00", "meta": {"OBJECT_NAME": "CARTOSAT-2C", "OBJECT_ID": "2016-040A", "EPOCH": "2025-12-10T03:53:35.503008", "MEAN_MOTION": 15.19251394, "ECCENTRICITY": 0.0010876, "INCLINATION": 97.4766, "RA_OF_ASC_NODE": 41.4383, "ARG_OF_PERICENTER": 72.6943, "MEAN_ANOMALY": 287.548, "EPHEMERIS_TYPE": 0, "CLASSIFICATION_TYPE": "U", "NORAD_CAT_ID": 41599, "ELEMENT_SET_NO": 999, "REV_AT_EPOCH": 52501, "BSTAR": 0.00022305, "MEAN_MOTION_DOT": 4.639e-05, "MEAN_MOTION_DDOT": 0}, "tle": {"line1": "1 41599U 16040A   25344.16221647  .00004639  00000+0  22305-3 0  9992", "line2": "2 41599  97.4766  41.4383 0010876  72.6943 287.5480 15.19251394525012"}}, "geometry": {"type": "Point", "coordinates": [53.3389033720393, -56.96239841934691]}}, {"type": "Feature", "properties": {"norad_id": 41601, "name": "SKYSAT-C1", "group": "resource", "lat": -65.82132317072245, "lon": -174.28208656483213, "alt_km": 476.8796629634935, "timestamp": "2025-12-10T09:57:44.361709+00:00", "meta": {"OBJECT_NAME": "SKYSAT-C1", "OBJECT_ID": "2016-040C", "EPOCH": "2025-12-10T01:03:12.196224", "MEAN_MOTION": 15.32510525, "ECCENTRICITY": 0.000268, "INCLINATION": 96.9824, "RA_OF_ASC_NODE": 21.2092, "ARG_OF_PERICENTER": 23.5908, "MEAN_ANOMALY": 336.5457, "EPHEMERIS_TYPE": 0, "CLASSIFICATION_TYPE": "U", "NORAD_CAT_ID": 41601, "ELEMENT_SET_NO": 999, "REV_AT_EPOCH": 52886, "BSTAR": 0.00041563, "MEAN_MOTION_DOT": 0.00012984, "MEAN_MOTION_DDOT": 0}, "tle": {"line1": "1 41601U 16040C   25344.04389116  .00012984  00000+0  41563-3 0  9998", "line2": "2 41601  96.9824  21.2092 0002680  23.5908 336.5457 15.32510525528862"}}, "geometry": {"type": "Point", "coordinates": [-174.28208656483213, -65.82132317072245]}}, {"type": "Feature", "properties": {"norad_id": 41603, "name": "LAPAN-A3", "group": "resource", "lat": 38.64759953233144, "lon": -23.700026896082477, "alt_km": 464.66631684834374, "timestamp": "2025-12-10T09:57:44.361719+00:00", "meta": {"OBJECT_NAME": "LAPAN-A3", "OBJECT_ID": "2016-040E", "EPOCH": "2025-12-10T05:05:18.838176", "MEAN_MOTION": 15.31518342, "ECCENTRICITY": 0.0009942, "INCLINATION": 97.1433, "RA_OF_ASC_NODE": 341.8599, "ARG_OF_PERICENTER": 343.669, "MEAN_ANOMALY": 16.423, "EPHEMERIS_TYPE": 0, "CLASSIFICATION_TYPE": "U", "NORAD_CAT_ID": 41603, "ELEMENT_SET_NO": 999, "REV_AT_EPOCH": 52587, "BSTAR": 0.00018168, "MEAN_MOTION_DOT": 5.463e-05, "MEAN_MOTION_DDOT": 0}, "tle": {"line1": "1 41603U 16040E   25344.21202359  .00005463  00000+0  18168-3 0  9991", "line2": "2 41603  97.1433 341.8599 0009942 343.6690  16.4230 15.31518342525873"}}, "geometry": {"type": "Point", "coordinates": [-23.700026896082477, 38.64759953233144]}}, {"type": "Feature", "properties": {"norad_id": 41604, "name": "BIROS", "group": "resource", "lat": 77.64463902052039, "lon": -129.72828165821807, "alt_km": 297.6013440853303, "timestamp": "2025-12-10T09:57:44.361730+00:00", "meta": {"OBJECT_NAME": "BIROS", "OBJECT_ID": "2016-040F", "EPOCH": "2025-12-10T01:58:59.670048", "MEAN_MOTION": 15.88522659, "ECCENTRICITY": 0.0003168, "INCLINATION": 97.0703, "RA_OF_ASC_NODE": 15.4098, "ARG_OF_PERICENTER": 156.5515, "MEAN_ANOMALY": 203.5903, "EPHEMERIS_TYPE": 0, "CLASSIFICATION_TYPE": "U", "NORAD_CAT_ID": 41604, "ELEMENT_SET_NO": 999, "REV_AT_EPOCH": 52830, "BSTAR": 0.00072042, "MEAN_MOTION_DOT": 0.00203476, "MEAN_MOTION_DDOT": 0}, "tle": {"line1": "1 41604U 16040F   25344.08263507  .00203476  00000+0  72042-3 0  9994", "line2": "2 41604  97.0703  15.4098 0003168 156.5515 203.5903 15.88522659528307"}}, "geometry": {"type": "Point", "coordinates": [-129.72828165821807, 77.64463902052039]}}, {"type": "Feature", "properties": {"norad_id": 41727, "name": "GAOFEN-3", "group": "resource", "lat": -22.35530074344682, "lon": 166.5510120638921, "alt_km": 757.3538303924652, "timestamp": "2025-12-10T09:57:44.361740+00:00", "meta": {"OBJECT_NAME": "GAOFEN-3", "OBJECT_ID": "2016-049A", "EPOCH": "2025-12-10T04:01:52.230432", "MEAN_MOTION": 14.42212515, "ECCENTRICITY": 0.0001499, "INCLINATION": 98.4038, "RA_OF_ASC_NODE": 349.7932, "ARG_OF_PERICENTER": 64.6229, "MEAN_ANOMALY": 295.5115, "EPHEMERIS_TYPE": 0, "CLASSIFICATION_TYPE": "U", "NORAD_CAT_ID": 41727, "ELEMENT_SET_NO": 999, "REV_AT_EPOCH": 49140, "BSTAR": 5.4691e-05, "MEAN_MOTION_DOT": 1.37e-06, "MEAN_MOTION_DDOT": 0}, "tle": {"line1": "1 41727U 16049A   25344.16796563  .00000137  00000+0  54691-4 0  9991", "line2": "2 41727  98.4038 349.7932 0001499  64.6229 295.5115 14.42212515491407"}}, "geometry": {"type": "Point", "coordinates": [166.5510120638921, -22.35530074344682]}}, {"type": "Feature", "properties": {"norad_id": 41771, "name": "SKYSAT-C4", "group": "resource", "lat": 76.63506991774071, "lon": -139.45337978611593, "alt_km": 431.87390289667655, "timestamp": "2025-12-10T09:57:44.361750+00:00", "meta": {"OBJECT_NAME": "SKYSAT-C4", "OBJECT_ID": "2016-058B", "EPOCH": "2025-12-10T01:44:15.225216", "MEAN_MOTION": 15.42126604, "ECCENTRICITY": 0.0001244, "INCLINATION": 96.9376, "RA_OF_ASC_NODE": 9.3894, "ARG_OF_PERICENTER": 134.424, "MEAN_ANOMALY": 225.711, "EPHEMERIS_TYPE": 0, "CLASSIFICATION_TYPE": "U", "NORAD_CAT_ID": 41771, "ELEMENT_SET_NO": 999, "REV_AT_EPOCH": 51626, "BSTAR": 0.00046822, "MEAN_MOTION_DOT": 0.00019988, "MEAN_MOTION_DDOT": 0}, "tle": {"line1": "1 41771U 16058B   25344.07239844  .00019988  00000+0  46822-3 0  9994", "line2": "2 41771  96.9376   9.3894 0001244 134.4240 225.7110 15.42126604516263"}}, "geometry": {"type": "Point", "coordinates": [-139.45337978611593, 76.63506991774071]}}, {"type": "Feature", "properties": {"norad_id": 41772, "name": "SKYSAT-C5", "group": "resource", "lat": 72.83036801496094, "lon": 4.552800974094701, "alt_km": 452.3954644973346, "timestamp": "2025-12-10T09:57:44.361761+00:00", "meta": {"OBJECT_NAME": "SKYSAT-C5", "OBJECT_ID": "2016-058C", "EPOCH": "2025-12-10T01:49:06.832128", "MEAN_MOTION": 15.35285929, "ECCENTRICITY": 0.0002392, "INCLINATION": 97.076, "RA_OF_ASC_NODE": 27.9328, "ARG_OF_PERICENTER": 140.8238, "MEAN_ANOMALY": 219.3179, "EPHEMERIS_TYPE": 0, "CLASSIFICATION_TYPE": "U", "NORAD_CAT_ID": 41772, "ELEMENT_SET_NO": 999, "REV_AT_EPOCH": 51475, "BSTAR": 0.00041503, "MEAN_MOTION_DOT": 0.00014155, "MEAN_MOTION_DDOT": 0}, "tle": {"line1": "1 41772U 16058C   25344.07577352  .00014155  00000+0  41503-3 0  9996", "line2": "2 41772  97.0760  27.9328 0002392 140.8238 219.3179 15.35285929514758"}}, "geometry": {"type": "Point", "coordinates": [4.552800974094701, 72.83036801496094]}}, {"type": "Feature", "properties": {"norad_id": 41773, "name": "SKYSAT-C2", "group": "resource", "lat": 66.59911076128232, "lon": -7.543512055539331, "alt_km": 445.25947524785624, "timestamp": "2025-12-10T09:57:44.361771+00:00", "meta": {"OBJECT_NAME": "SKYSAT-C2", "OBJECT_ID": "2016-058D", "EPOCH": "2025-12-10T00:17:43.760256", "MEAN_MOTION": 15.37170286, "ECCENTRICITY": 0.0004512, "INCLINATION": 97.0363, "RA_OF_ASC_NODE": 8.6544, "ARG_OF_PERICENTER": 41.483, "MEAN_ANOMALY": 318.6757, "EPHEMERIS_TYPE": 0, "CLASSIFICATION_TYPE": "U", "NORAD_CAT_ID": 41773, "ELEMENT_SET_NO": 999, "REV_AT_EPOCH": 51594, "BSTAR": 0.00043902, "MEAN_MOTION_DOT": 0.00015919, "MEAN_MOTION_DDOT": 0}, "tle": {"line1": "1 41773U 16058D   25344.01231204  .00015919  00000+0  43902-3 0  9998", "line2": "2 41773  97.0363   8.6544 0004512  41.4830 318.6757 15.37170286515942"}}, "geometry": {"type": "Point", "coordinates": [-7.543512055539331, 66.59911076128232]}}]}